[{"OBJECT_NAME":"STARLINK-3568","OBJECT_ID":"2022-022E","EPOCH":"2026-03-09T06:00:11.224224","MEAN_MOTION":15.08849092,"ECCENTRICITY":0.00011341,"INCLINATION":53.2194,"RA_OF_ASC_NODE":21.103,"ARG_OF_PERICENTER":91.177,"MEAN_ANOMALY":268.9352,"EPHEMERIS_TYPE":0,"CLASSIFICATION_TYPE":"U","NORAD_CAT_ID":51856,"ELEMENT_SET_NO":999,"REV_AT_EPOCH":22298,"BSTAR":1.0592192e-5,"MEAN_MOTION_DOT":-1.19e-6,"MEAN_MOTION_DDOT":0},{"OBJECT_NAME":"LEMUR-2-AHMED-ASRAR","OBJECT_ID":"2024-149DN","EPOCH":"2026-03-09T17:35:01.338432","MEAN_MOTION":15.10376432,"ECCENTRICITY":0.00016334,"INCLINATION":97.7021,"RA_OF_ASC_NODE":152.9847,"ARG_OF_PERICENTER":18.5035,"MEAN_ANOMALY":341.6253,"EPHEMERIS_TYPE":0,"CLASSIFICATION_TYPE":"U","NORAD_CAT_ID":60576,"ELEMENT_SET_NO":999,"REV_AT_EPOCH":8554,"BSTAR":0.0007977347,"MEAN_MOTION_DOT":0.00013045,"MEAN_MOTION_DDOT":0}]
